CCSDS_OMM_VERS = 2.0
CREATION_DATE  = 
ORIGINATOR     = 

OBJECT_NAME    = KUIPER-00220
OBJECT_ID      = 2026-030T
CENTER_NAME    = EARTH
REF_FRAME      = TEME
TIME_SYSTEM    = UTC
MEAN_ELEMENT_THEORY = SGP/SGP4

EPOCH          = 2026-03-07T22:54:43.647840
MEAN_MOTION    = 15.34718494
ECCENTRICITY   = .0008547
INCLINATION    = 51.8818
RA_OF_ASC_NODE = 227.6857
ARG_OF_PERICENTER = 50.1937
MEAN_ANOMALY   = 309.9800

EPHEMERIS_TYPE = 0
CLASSIFICATION_TYPE = U
NORAD_CAT_ID   = 67781
ELEMENT_SET_NO = 999
REV_AT_EPOCH   = 482
BSTAR          = .14005E-2
MEAN_MOTION_DOT = .47818E-3
MEAN_MOTION_DDOT = 0

CCSDS_OMM_VERS = 2.0
CREATION_DATE  = 
ORIGINATOR     = 

OBJECT_NAME    = KUIPER-00222
OBJECT_ID      = 2026-030U
CENTER_NAME    = EARTH
REF_FRAME      = TEME
TIME_SYSTEM    = UTC
MEAN_ELEMENT_THEORY = SGP/SGP4

EPOCH          = 2026-03-07T21:58:17.270688
MEAN_MOTION    = 15.32392673
ECCENTRICITY   = .0017264
INCLINATION    = 51.8813
RA_OF_ASC_NODE = 228.1626
ARG_OF_PERICENTER = 58.9029
MEAN_ANOMALY   = 301.3647

EPHEMERIS_TYPE = 0
CLASSIFICATION_TYPE = U
NORAD_CAT_ID   = 67782
ELEMENT_SET_NO = 999
REV_AT_EPOCH   = 481
BSTAR          = .24363E-3
MEAN_MOTION_DOT = .7396E-4
MEAN_MOTION_DDOT = 0

CCSDS_OMM_VERS = 2.0
CREATION_DATE  = 
ORIGINATOR     = 

OBJECT_NAME    = KUIPER-00223
OBJECT_ID      = 2026-030V
CENTER_NAME    = EARTH
REF_FRAME      = TEME
TIME_SYSTEM    = UTC
MEAN_ELEMENT_THEORY = SGP/SGP4

EPOCH          = 2026-03-08T00:39:48.132288
MEAN_MOTION    = 15.34077115
ECCENTRICITY   = .001283
INCLINATION    = 51.8840
RA_OF_ASC_NODE = 227.4268
ARG_OF_PERICENTER = 54.5710
MEAN_ANOMALY   = 305.6471

EPHEMERIS_TYPE = 0
CLASSIFICATION_TYPE = U
NORAD_CAT_ID   = 67783
ELEMENT_SET_NO = 999
REV_AT_EPOCH   = 483
BSTAR          = .16493E-2
MEAN_MOTION_DOT = .55372E-3
MEAN_MOTION_DDOT = 0

CCSDS_OMM_VERS = 2.0
CREATION_DATE  = 
ORIGINATOR     = 

OBJECT_NAME    = KUIPER-00225
OBJECT_ID      = 2026-030W
CENTER_NAME    = EARTH
REF_FRAME      = TEME
TIME_SYSTEM    = UTC
MEAN_ELEMENT_THEORY = SGP/SGP4

EPOCH          = 2026-03-08T00:04:01.678080
MEAN_MOTION    = 15.35859629
ECCENTRICITY   = .0004554
INCLINATION    = 51.8807
RA_OF_ASC_NODE = 227.2639
ARG_OF_PERICENTER = 35.7086
MEAN_ANOMALY   = 324.4204

EPHEMERIS_TYPE = 0
CLASSIFICATION_TYPE = U
NORAD_CAT_ID   = 67784
ELEMENT_SET_NO = 999
REV_AT_EPOCH   = 483
BSTAR          = .14936E-2
MEAN_MOTION_DOT = .52921E-3
MEAN_MOTION_DDOT = 0

CCSDS_OMM_VERS = 2.0
CREATION_DATE  = 
ORIGINATOR     = 

OBJECT_NAME    = KUIPER-00226
OBJECT_ID      = 2026-030X
CENTER_NAME    = EARTH
REF_FRAME      = TEME
TIME_SYSTEM    = UTC
MEAN_ELEMENT_THEORY = SGP/SGP4

EPOCH          = 2026-03-07T23:51:30.371328
MEAN_MOTION    = 15.31065320
ECCENTRICITY   = .0019987
INCLINATION    = 51.8810
RA_OF_ASC_NODE = 227.9367
ARG_OF_PERICENTER = 66.5560
MEAN_ANOMALY   = 293.7523

EPHEMERIS_TYPE = 0
CLASSIFICATION_TYPE = U
NORAD_CAT_ID   = 67785
ELEMENT_SET_NO = 999
REV_AT_EPOCH   = 482
BSTAR          = -.31612E-3
MEAN_MOTION_DOT = -.10052E-3
MEAN_MOTION_DDOT = 0

CCSDS_OMM_VERS = 2.0
CREATION_DATE  = 
ORIGINATOR     = 

OBJECT_NAME    = KUIPER-00259
OBJECT_ID      = 2026-030Y
CENTER_NAME    = EARTH
REF_FRAME      = TEME
TIME_SYSTEM    = UTC
MEAN_ELEMENT_THEORY = SGP/SGP4

EPOCH          = 2026-03-07T22:48:06.715008
MEAN_MOTION    = 15.35024263
ECCENTRICITY   = .0008687
INCLINATION    = 51.8812
RA_OF_ASC_NODE = 227.6563
ARG_OF_PERICENTER = 44.1399
MEAN_ANOMALY   = 316.0279

EPHEMERIS_TYPE = 0
CLASSIFICATION_TYPE = U
NORAD_CAT_ID   = 67786
ELEMENT_SET_NO = 999
REV_AT_EPOCH   = 482
BSTAR          = .1117E-2
MEAN_MOTION_DOT = .3839E-3
MEAN_MOTION_DDOT = 0

CCSDS_OMM_VERS = 2.0
CREATION_DATE  = 
ORIGINATOR     = 

OBJECT_NAME    = KUIPER-00260
OBJECT_ID      = 2026-030Z
CENTER_NAME    = EARTH
REF_FRAME      = TEME
TIME_SYSTEM    = UTC
MEAN_ELEMENT_THEORY = SGP/SGP4

EPOCH          = 2026-03-07T22:17:56.302368
MEAN_MOTION    = 15.36421267
ECCENTRICITY   = .000113
INCLINATION    = 51.8796
RA_OF_ASC_NODE = 227.5204
ARG_OF_PERICENTER = 48.2767
MEAN_ANOMALY   = 311.8316

EPHEMERIS_TYPE = 0
CLASSIFICATION_TYPE = U
NORAD_CAT_ID   = 67787
ELEMENT_SET_NO = 999
REV_AT_EPOCH   = 473
BSTAR          = .11697E-2
MEAN_MOTION_DOT = .42051E-3
MEAN_MOTION_DDOT = 0

CCSDS_OMM_VERS = 2.0
CREATION_DATE  = 
ORIGINATOR     = 

OBJECT_NAME    = KUIPER-00262
OBJECT_ID      = 2026-030AA
CENTER_NAME    = EARTH
REF_FRAME      = TEME
TIME_SYSTEM    = UTC
MEAN_ELEMENT_THEORY = SGP/SGP4

EPOCH          = 2026-03-07T22:12:17.281728
MEAN_MOTION    = 15.36601914
ECCENTRICITY   = .0000303
INCLINATION    = 51.8809
RA_OF_ASC_NODE = 227.4974
ARG_OF_PERICENTER = 105.3308
MEAN_ANOMALY   = 254.7712

EPHEMERIS_TYPE = 0
CLASSIFICATION_TYPE = U
NORAD_CAT_ID   = 67788
ELEMENT_SET_NO = 999
REV_AT_EPOCH   = 482
BSTAR          = .10381E-2
MEAN_MOTION_DOT = .3747E-3
MEAN_MOTION_DDOT = 0

CCSDS_OMM_VERS = 2.0
CREATION_DATE  = 
ORIGINATOR     = 

OBJECT_NAME    = KUIPER-00266
OBJECT_ID      = 2026-030AB
CENTER_NAME    = EARTH
REF_FRAME      = TEME
TIME_SYSTEM    = UTC
MEAN_ELEMENT_THEORY = SGP/SGP4

EPOCH          = 2026-03-07T23:58:34.709376
MEAN_MOTION    = 15.30958734
ECCENTRICITY   = .0022622
INCLINATION    = 51.8806
RA_OF_ASC_NODE = 227.9658
ARG_OF_PERICENTER = 68.5346
MEAN_ANOMALY   = 291.8048

EPHEMERIS_TYPE = 0
CLASSIFICATION_TYPE = U
NORAD_CAT_ID   = 67789
ELEMENT_SET_NO = 999
REV_AT_EPOCH   = 482
BSTAR          = .15084E-2
MEAN_MOTION_DOT = .46046E-3
MEAN_MOTION_DDOT = 0

CCSDS_OMM_VERS = 2.0
CREATION_DATE  = 
ORIGINATOR     = 

OBJECT_NAME    = KUIPER-00268
OBJECT_ID      = 2026-030AC
CENTER_NAME    = EARTH
REF_FRAME      = TEME
TIME_SYSTEM    = UTC
MEAN_ELEMENT_THEORY = SGP/SGP4

EPOCH          = 2026-03-08T00:00:09.510048
MEAN_MOTION    = 15.35965265
ECCENTRICITY   = .0002948
INCLINATION    = 51.8840
RA_OF_ASC_NODE = 227.2552
ARG_OF_PERICENTER = 41.6839
MEAN_ANOMALY   = 318.4371

EPHEMERIS_TYPE = 0
CLASSIFICATION_TYPE = U
NORAD_CAT_ID   = 67790
ELEMENT_SET_NO = 999
REV_AT_EPOCH   = 483
BSTAR          = .15984E-2
MEAN_MOTION_DOT = .56876E-3
MEAN_MOTION_DDOT = 0

CCSDS_OMM_VERS = 2.0
CREATION_DATE  = 
ORIGINATOR     = 

OBJECT_NAME    = KUIPER-00270
OBJECT_ID      = 2026-030AD
CENTER_NAME    = EARTH
REF_FRAME      = TEME
TIME_SYSTEM    = UTC
MEAN_ELEMENT_THEORY = SGP/SGP4

EPOCH          = 2026-03-08T00:30:41.310144
MEAN_MOTION    = 15.34605468
ECCENTRICITY   = .0010541
INCLINATION    = 51.8816
RA_OF_ASC_NODE = 227.3818
ARG_OF_PERICENTER = 51.0290
MEAN_ANOMALY   = 309.1633

EPHEMERIS_TYPE = 0
CLASSIFICATION_TYPE = U
NORAD_CAT_ID   = 67791
ELEMENT_SET_NO = 999
REV_AT_EPOCH   = 483
BSTAR          = .13243E-2
MEAN_MOTION_DOT = .45041E-3
MEAN_MOTION_DDOT = 0

CCSDS_OMM_VERS = 2.0
CREATION_DATE  = 
ORIGINATOR     = 

OBJECT_NAME    = KUIPER-00274
OBJECT_ID      = 2026-030AE
CENTER_NAME    = EARTH
REF_FRAME      = TEME
TIME_SYSTEM    = UTC
MEAN_ELEMENT_THEORY = SGP/SGP4

EPOCH          = 2026-03-07T22:00:01.999584
MEAN_MOTION    = 15.30086886
ECCENTRICITY   = .001859
INCLINATION    = 51.8823
RA_OF_ASC_NODE = 228.2521
ARG_OF_PERICENTER = 65.8357
MEAN_ANOMALY   = 258.3323

EPHEMERIS_TYPE = 0
CLASSIFICATION_TYPE = U
NORAD_CAT_ID   = 67792
ELEMENT_SET_NO = 999
REV_AT_EPOCH   = 380
BSTAR          = -.11164E-1
MEAN_MOTION_DOT = -.318581E-2
MEAN_MOTION_DDOT = 0

