KUIPER-00220            
1 67781U 26030T   26066.95467185  .00047818  00000+0  14005-2 0  9994
2 67781  51.8818 227.6857 0008547  50.1937 309.9800 15.34718494  4827
KUIPER-00222            
1 67782U 26030U   26066.91547767  .00007396  00000+0  24363-3 0  9992
2 67782  51.8813 228.1626 0017264  58.9029 301.3647 15.32392673  4816
KUIPER-00223            
1 67783U 26030V   26067.02764042  .00055372  00000+0  16493-2 0  9994
2 67783  51.8840 227.4268 0012830  54.5710 305.6471 15.34077115  4831
KUIPER-00225            
1 67784U 26030W   26067.00279720  .00052921  00000+0  14936-2 0  9994
2 67784  51.8807 227.2639 0004554  35.7086 324.4204 15.35859629  4838
KUIPER-00226            
1 67785U 26030X   26066.99410152 -.00010052  00000+0 -31612-3 0  9990
2 67785  51.8810 227.9367 0019987  66.5560 293.7523 15.31065320  4827
KUIPER-00259            
1 67786U 26030Y   26066.95007772  .00038390  00000+0  11170-2 0  9996
2 67786  51.8812 227.6563 0008687  44.1399 316.0279 15.35024263  4824
KUIPER-00260            
1 67787U 26030Z   26066.92912387  .00042051  00000+0  11697-2 0  9994
2 67787  51.8796 227.5204 0001130  48.2767 311.8316 15.36421267  4738
KUIPER-00262            
1 67788U 26030AA  26066.92520002  .00037470  00000+0  10381-2 0  9992
2 67788  51.8809 227.4974 0000303 105.3308 254.7712 15.36601914  4828
KUIPER-00266            
1 67789U 26030AB  26066.99901284  .00046046  00000+0  15084-2 0  9999
2 67789  51.8806 227.9658 0022622  68.5346 291.8048 15.30958734  4823
KUIPER-00268            
1 67790U 26030AC  26067.00011007  .00056876  00000+0  15984-2 0  9990
2 67790  51.8840 227.2552 0002948  41.6839 318.4371 15.35965265  4835
KUIPER-00270            
1 67791U 26030AD  26067.02131146  .00045041  00000+0  13243-2 0  9998
2 67791  51.8816 227.3818 0010541  51.0290 309.1633 15.34605468  4832
KUIPER-00274            
1 67792U 26030AE  26066.91668981 -.00318581  00000+0 -11164-1 0  9991
2 67792  51.8823 228.2521 0018590  65.8357 258.3323 15.30086886  3801
